EXO-0                   
1 59175U 23174DK  26068.71046781  .00011582  00000+0  36716-3 0  9992
2 59175  97.3864 148.9039 0009878 157.1125 203.0559 15.32821991129797
STARLINK-31710          
1 59378U 24062E   26068.71549580  .00001032  00000+0  46990-4 0  9994
2 59378  53.1602 255.6643 0001228  96.7544 263.3597 15.30191972109632
